{
  "type": "FeatureCollection",
  "features": [
    {
      "type": "Feature",
      "properties": {
        "norad_id": 37781,
        "name": "HAIYANG-2A",
        "group": "resource",
        "lat": 30.55117028837287,
        "lon": 164.02597062240972,
        "alt_km": 965.5466214734815,
        "timestamp": "2025-12-03T08:58:45.655928+00:00",
        "meta_object_name": "HAIYANG-2A",
        "meta_object_id": "2011-043A",
        "meta_epoch": "2025-12-03T04:46:36.134112",
        "meta_mean_motion": 13.78834159,
        "meta_eccentricity": 0.0001643,
        "meta_inclination": 99.3377,
        "meta_ra_of_asc_node": 338.2805,
        "meta_arg_of_pericenter": 97.145,
        "meta_mean_anomaly": 262.9889,
        "meta_ephemeris_type": 0,
        "meta_classification_type": "U",
        "meta_norad_cat_id": 37781,
        "meta_element_set_no": 999,
        "meta_rev_at_epoch": 71967,
        "meta_bstar": 6.2745e-05,
        "meta_mean_motion_dot": 2e-07,
        "meta_mean_motion_ddot": 0,
        "tle_line1": "1 37781U 11043A   25337.19902933  .00000020  00000+0  62745-4 0  9990",
        "tle_line2": "2 37781  99.3377 338.2805 0001643  97.1450 262.9889 13.78834159719678"
      },
      "geometry": {
        "type": "Point",
        "coordinates": [
          164.02597062240972,
          30.55117028837287
        ]
      }
    },
    {
      "type": "Feature",
      "properties": {
        "norad_id": 37791,
        "name": "RASAT",
        "group": "resource",
        "lat": 31.732568348857352,
        "lon": -108.19838035732842,
        "alt_km": 657.036904116314,
        "timestamp": "2025-12-03T08:58:45.655940+00:00",
        "meta_object_name": "RASAT",
        "meta_object_id": "2011-044D",
        "meta_epoch": "2025-12-03T05:10:20.459712",
        "meta_mean_motion": 14.67886926,
        "meta_eccentricity": 0.0021965,
        "meta_inclination": 98.0656,
        "meta_ra_of_asc_node": 66.6146,
        "meta_arg_of_pericenter": 93.7032,
        "meta_mean_anomaly": 296.1736,
        "meta_ephemeris_type": 0,
        "meta_classification_type": "U",
        "meta_norad_cat_id": 37791,
        "meta_element_set_no": 999,
        "meta_rev_at_epoch": 76443,
        "meta_bstar": 0.00016518,
        "meta_mean_motion_dot": 8.99e-06,
        "meta_mean_motion_ddot": 0,
        "tle_line1": "1 37791U 11044D   25337.21551458  .00000899  00000+0  16518-3 0  9997",
        "tle_line2": "2 37791  98.0656  66.6146 0021965  93.7032 296.1736 14.67886926764434"
      },
      "geometry": {
        "type": "Point",
        "coordinates": [
          -108.19838035732842,
          31.732568348857352
        ]
      }
    },
    {
      "type": "Feature",
      "properties": {
        "norad_id": 37841,
        "name": "SRMSAT",
        "group": "resource",
        "lat": -19.69613317310956,
        "lon": 64.96065862796328,
        "alt_km": 848.7535153515364,
        "timestamp": "2025-12-03T08:58:45.655951+00:00",
        "meta_object_name": "SRMSAT",
        "meta_object_id": "2011-058D",
        "meta_epoch": "2025-12-02T21:42:28.501920",
        "meta_mean_motion": 14.11505975,
        "meta_eccentricity": 0.0011743,
        "meta_inclination": 19.9698,
        "meta_ra_of_asc_node": 167.4792,
        "meta_arg_of_pericenter": 204.4479,
        "meta_mean_anomaly": 184.7163,
        "meta_ephemeris_type": 0,
        "meta_classification_type": "U",
        "meta_norad_cat_id": 37841,
        "meta_element_set_no": 999,
        "meta_rev_at_epoch": 73005,
        "meta_bstar": 0.000118,
        "meta_mean_motion_dot": 4.82e-06,
        "meta_mean_motion_ddot": 0,
        "tle_line1": "1 37841U 11058D   25336.90449655  .00000482  00000+0  11800-3 0  9995",
        "tle_line2": "2 37841  19.9698 167.4792 0011743 204.4479 184.7163 14.11505975730052"
      },
      "geometry": {
        "type": "Point",
        "coordinates": [
          64.96065862796328,
          -19.69613317310956
        ]
      }
    },
    {
      "type": "Feature",
      "properties": {
        "norad_id": 38012,
        "name": "PLEIADES 1A",
        "group": "resource",
        "lat": -74.94053662444769,
        "lon": -162.0452918932612,
        "alt_km": 706.1810048688594,
        "timestamp": "2025-12-03T08:58:45.655962+00:00",
        "meta_object_name": "PLEIADES 1A",
        "meta_object_id": "2011-076F",
        "meta_epoch": "2025-12-03T04:53:50.621568",
        "meta_mean_motion": 14.58545909,
        "meta_eccentricity": 0.0001408,
        "meta_inclination": 98.1834,
        "meta_ra_of_asc_node": 50.1194,
        "meta_arg_of_pericenter": 81.4068,
        "meta_mean_anomaly": 3.3529,
        "meta_ephemeris_type": 0,
        "meta_classification_type": "U",
        "meta_norad_cat_id": 38012,
        "meta_element_set_no": 999,
        "meta_rev_at_epoch": 74342,
        "meta_bstar": 0.00013563,
        "meta_mean_motion_dot": 5.85e-06,
        "meta_mean_motion_ddot": 0,
        "tle_line1": "1 38012U 11076F   25337.20405812  .00000585  00000+0  13563-3 0  9999",
        "tle_line2": "2 38012  98.1834  50.1194 0001408  81.4068   3.3529 14.58545909743421"
      },
      "geometry": {
        "type": "Point",
        "coordinates": [
          -162.0452918932612,
          -74.94053662444769
        ]
      }
    },
    {
      "type": "Feature",
      "properties": {
        "norad_id": 38038,
        "name": "ZIYUAN 1-02C (ZY 1-02C)",
        "group": "resource",
        "lat": 42.55963154353434,
        "lon": -128.6090519803875,
        "alt_km": 757.3275616859664,
        "timestamp": "2025-12-03T08:58:45.655972+00:00",
        "meta_object_name": "ZIYUAN 1-02C (ZY 1-02C)",
        "meta_object_id": "2011-079A",
        "meta_epoch": "2025-12-03T05:25:58.228032",
        "meta_mean_motion": 14.37994368,
        "meta_eccentricity": 0.0006769,
        "meta_inclination": 98.4346,
        "meta_ra_of_asc_node": 43.415,
        "meta_arg_of_pericenter": 164.8743,
        "meta_mean_anomaly": 287.4058,
        "meta_ephemeris_type": 0,
        "meta_classification_type": "U",
        "meta_norad_cat_id": 38038,
        "meta_element_set_no": 999,
        "meta_rev_at_epoch": 73104,
        "meta_bstar": 0.00024923,
        "meta_mean_motion_dot": 7.11e-06,
        "meta_mean_motion_ddot": 0,
        "tle_line1": "1 38038U 11079A   25337.22636838  .00000711  00000+0  24923-3 0  9999",
        "tle_line2": "2 38038  98.4346  43.4150 0006769 164.8743 287.4058 14.37994368731049"
      },
      "geometry": {
        "type": "Point",
        "coordinates": [
          -128.6090519803875,
          42.55963154353434
        ]
      }
    },
    {
      "type": "Feature",
      "properties": {
        "norad_id": 38046,
        "name": "ZIYUAN 3-1 (ZY 3-1)",
        "group": "resource",
        "lat": -66.48330583316172,
        "lon": -153.250658540607,
        "alt_km": 376.6512278743394,
        "timestamp": "2025-12-03T08:58:45.655984+00:00",
        "meta_object_name": "ZIYUAN 3-1 (ZY 3-1)",
        "meta_object_id": "2012-001A",
        "meta_epoch": "2025-12-03T04:51:37.213920",
        "meta_mean_motion": 15.66733581,
        "meta_eccentricity": 0.000217,
        "meta_inclination": 97.178,
        "meta_ra_of_asc_node": 43.4093,
        "meta_arg_of_pericenter": 32.48,
        "meta_mean_anomaly": 327.6594,
        "meta_ephemeris_type": 0,
        "meta_classification_type": "U",
        "meta_norad_cat_id": 38046,
        "meta_element_set_no": 999,
        "meta_rev_at_epoch": 77347,
        "meta_bstar": 0.00074457,
        "meta_mean_motion_dot": 0.00078711,
        "meta_mean_motion_ddot": 0,
        "tle_line1": "1 38046U 12001A   25337.20251405  .00078711  00000+0  74457-3 0  9997",
        "tle_line2": "2 38046  97.1780  43.4093 0002170  32.4800 327.6594 15.66733581773474"
      },
      "geometry": {
        "type": "Point",
        "coordinates": [
          -153.250658540607,
          -66.48330583316172
        ]
      }
    },
    {
      "type": "Feature",
      "properties": {
        "norad_id": 38338,
        "name": "ARIRANG-3 (KOMPSAT-3)",
        "group": "resource",
        "lat": 47.86638653823839,
        "lon": -77.42794389350426,
        "alt_km": 680.1874171741747,
        "timestamp": "2025-12-03T08:58:45.656004+00:00",
        "meta_object_name": "ARIRANG-3 (KOMPSAT-3)",
        "meta_object_id": "2012-025B",
        "meta_epoch": "2025-12-03T03:49:46.364160",
        "meta_mean_motion": 14.61691175,
        "meta_eccentricity": 0.0006042,
        "meta_inclination": 98.3308,
        "meta_ra_of_asc_node": 291.6776,
        "meta_arg_of_pericenter": 8.9196,
        "meta_mean_anomaly": 351.2111,
        "meta_ephemeris_type": 0,
        "meta_classification_type": "U",
        "meta_norad_cat_id": 38338,
        "meta_element_set_no": 999,
        "meta_rev_at_epoch": 72270,
        "meta_bstar": 0.00018079,
        "meta_mean_motion_dot": 8.52e-06,
        "meta_mean_motion_ddot": 0,
        "tle_line1": "1 38338U 12025B   25337.15956440  .00000852  00000+0  18079-3 0  9991",
        "tle_line2": "2 38338  98.3308 291.6776 0006042   8.9196 351.2111 14.61691175722704"
      },
      "geometry": {
        "type": "Point",
        "coordinates": [
          -77.42794389350426,
          47.86638653823839
        ]
      }
    }
  ]
}